[
  {
    "CCSDS_OMM_VERS": "2.0",
    "COMMENT": "GENERATED VIA SPACE-TRACK.ORG API",
    "CREATION_DATE": "2021-12-03T14:56:11",
    "ORIGINATOR": "18 SPCS",
    "OBJECT_NAME": "COURIER 1B",
    "OBJECT_ID": "1960-013A",
    "CENTER_NAME": "EARTH",
    "REF_FRAME": "TEME",
    "TIME_SYSTEM": "UTC",
    "MEAN_ELEMENT_THEORY": "SGP4",
    "EPOCH": "2021-12-03T12:35:27.830688",
    "MEAN_MOTION": "13.46330146",
    "ECCENTRICITY": "0.01650690",
    "INCLINATION": "28.3275",
    "RA_OF_ASC_NODE": "265.1389",
    "ARG_OF_PERICENTER": "170.8951",
    "MEAN_ANOMALY": "189.4640",
    "EPHEMERIS_TYPE": "0",
    "CLASSIFICATION_TYPE": "U",
    "NORAD_CAT_ID": "58",
    "ELEMENT_SET_NO": "999",
    "REV_AT_EPOCH": "1117",
    "BSTAR": "0.00003058800000",
    "MEAN_MOTION_DOT": "0.00000107",
    "MEAN_MOTION_DDOT": "0.0000000000000",
    "SEMIMAJOR_AXIS": "7463.928",
    "PERIOD": "106.957",
    "APOAPSIS": "1209.000",
    "PERIAPSIS": "962.587",
    "OBJECT_TYPE": "PAYLOAD",
    "RCS_SIZE": "LARGE",
    "COUNTRY_CODE": "US",
    "LAUNCH_DATE": "1960-10-04",
    "SITE": "AFETR",
    "DECAY_DATE": null,
    "FILE": "3231561",
    "GP_ID": "190985310",
    "TLE_LINE0": "0 COURIER 1B",
    "TLE_LINE1": "1    58U 60013A   21337.52462767  .00000107  00000-0  30588-4 0  9994",
    "TLE_LINE2": "2    58  28.3275 265.1389 0165069 170.8951 189.4640 13.46330146 11177"
  },
  {
    "CCSDS_OMM_VERS": "2.0",
    "COMMENT": "GENERATED VIA SPACE-TRACK.ORG API",
    "CREATION_DATE": "2021-12-03T17:32:05",
    "ORIGINATOR": "18 SPCS",
    "OBJECT_NAME": "THOR ABLESTAR R\/B",
    "OBJECT_ID": "1960-013B",
    "CENTER_NAME": "EARTH",
    "REF_FRAME": "TEME",
    "TIME_SYSTEM": "UTC",
    "MEAN_ELEMENT_THEORY": "SGP4",
    "EPOCH": "2021-12-03T10:36:33.004224",
    "MEAN_MOTION": "13.52990692",
    "ECCENTRICITY": "0.01893300",
    "INCLINATION": "28.2496",
    "RA_OF_ASC_NODE": "355.2008",
    "ARG_OF_PERICENTER": "88.1288",
    "MEAN_ANOMALY": "274.0929",
    "EPHEMERIS_TYPE": "0",
    "CLASSIFICATION_TYPE": "U",
    "NORAD_CAT_ID": "59",
    "ELEMENT_SET_NO": "999",
    "REV_AT_EPOCH": "1861",
    "BSTAR": "0.00002257000000",
    "MEAN_MOTION_DOT": "0.00000103",
    "MEAN_MOTION_DDOT": "0.0000000000000",
    "SEMIMAJOR_AXIS": "7439.412",
    "PERIOD": "106.431",
    "APOAPSIS": "1202.128",
    "PERIAPSIS": "920.427",
    "OBJECT_TYPE": "ROCKET BODY",
    "RCS_SIZE": "LARGE",
    "COUNTRY_CODE": "US",
    "LAUNCH_DATE": "1960-10-04",
    "SITE": "AFETR",
    "DECAY_DATE": null,
    "FILE": "3231740",
    "GP_ID": "190990837",
    "TLE_LINE0": "0 THOR ABLESTAR R\/B",
    "TLE_LINE1": "1 00059U 60013B   21337.44204866  .00000103  00000-0  22570-4 0  9998",
    "TLE_LINE2": "2 00059  28.2496 355.2008 0189330  88.1288 274.0929 13.52990692 18614"
  },
  {
    "CCSDS_OMM_VERS": "2.0",
    "COMMENT": "GENERATED VIA SPACE-TRACK.ORG API",
    "CREATION_DATE": "2021-12-03T17:32:05",
    "ORIGINATOR": "18 SPCS",
    "OBJECT_NAME": "SCOUT X-1 R\/B",
    "OBJECT_ID": "1961-004B",
    "CENTER_NAME": "EARTH",
    "REF_FRAME": "TEME",
    "TIME_SYSTEM": "UTC",
    "MEAN_ELEMENT_THEORY": "SGP4",
    "EPOCH": "2021-12-03T11:14:23.796672",
    "MEAN_MOTION": "12.26012647",
    "ECCENTRICITY": "0.11747550",
    "INCLINATION": "38.8578",
    "RA_OF_ASC_NODE": "21.0085",
    "ARG_OF_PERICENTER": "140.8135",
    "MEAN_ANOMALY": "228.3821",
    "EPHEMERIS_TYPE": "0",
    "CLASSIFICATION_TYPE": "U",
    "NORAD_CAT_ID": "82",
    "ELEMENT_SET_NO": "999",
    "REV_AT_EPOCH": "87335",
    "BSTAR": "-0.00005451300000",
    "MEAN_MOTION_DOT": "-0.00000118",
    "MEAN_MOTION_DDOT": "0.0000000000000",
    "SEMIMAJOR_AXIS": "7944.597",
    "PERIOD": "117.454",
    "APOAPSIS": "2499.758",
    "PERIAPSIS": "633.167",
    "OBJECT_TYPE": "ROCKET BODY",
    "RCS_SIZE": "MEDIUM",
    "COUNTRY_CODE": "US",
    "LAUNCH_DATE": "1961-02-16",
    "SITE": "WLPIS",
    "DECAY_DATE": null,
    "FILE": "3231740",
    "GP_ID": "190990085",
    "TLE_LINE0": "0 SCOUT X-1 R\/B",
    "TLE_LINE1": "1 00082U 61004B   21337.46833098 -.00000118  00000-0 -54513-4 0  9992",
    "TLE_LINE2": "2 00082  38.8578  21.0085 1174755 140.8135 228.3821 12.26012647873352"
  },
  {
    "CCSDS_OMM_VERS": "2.0",
    "COMMENT": "GENERATED VIA SPACE-TRACK.ORG API",
    "CREATION_DATE": "2021-12-04T02:39:20",
    "ORIGINATOR": "18 SPCS",
    "OBJECT_NAME": "SCOUT X-1 DEB",
    "OBJECT_ID": "1961-004C",
    "CENTER_NAME": "EARTH",
    "REF_FRAME": "TEME",
    "TIME_SYSTEM": "UTC",
    "MEAN_ELEMENT_THEORY": "SGP4",
    "EPOCH": "2021-12-03T17:02:27.198528",
    "MEAN_MOTION": "14.22838569",
    "ECCENTRICITY": "0.03753070",
    "INCLINATION": "38.7618",
    "RA_OF_ASC_NODE": "171.6663",
    "ARG_OF_PERICENTER": "105.3201",
    "MEAN_ANOMALY": "258.9338",
    "EPHEMERIS_TYPE": "0",
    "CLASSIFICATION_TYPE": "U",
    "NORAD_CAT_ID": "85",
    "ELEMENT_SET_NO": "999",
    "REV_AT_EPOCH": "715",
    "BSTAR": "0.00102710000000",
    "MEAN_MOTION_DOT": "0.00004747",
    "MEAN_MOTION_DDOT": "0.0000000000000",
    "SEMIMAJOR_AXIS": "7193.906",
    "PERIOD": "101.206",
    "APOAPSIS": "1085.763",
    "PERIAPSIS": "545.779",
    "OBJECT_TYPE": "DEBRIS",
    "RCS_SIZE": "SMALL",
    "COUNTRY_CODE": "US",
    "LAUNCH_DATE": "1961-02-16",
    "SITE": "WLPIS",
    "DECAY_DATE": null,
    "FILE": "3231910",
    "GP_ID": "191018273",
    "TLE_LINE0": "0 SCOUT X-1 DEB",
    "TLE_LINE1": "1 00085U 61004C   21337.71003702  .00004747  00000-0  10271-2 0  9995",
    "TLE_LINE2": "2 00085  38.7618 171.6663 0375307 105.3201 258.9338 14.22838569  7154"
  },
  {
    "CCSDS_OMM_VERS": "2.0",
    "COMMENT": "GENERATED VIA SPACE-TRACK.ORG API",
    "CREATION_DATE": "2021-12-03T17:32:05",
    "ORIGINATOR": "18 SPCS",
    "OBJECT_NAME": "EXPLORER 11",
    "OBJECT_ID": "1961-013A",
    "CENTER_NAME": "EARTH",
    "REF_FRAME": "TEME",
    "TIME_SYSTEM": "UTC",
    "MEAN_ELEMENT_THEORY": "SGP4",
    "EPOCH": "2021-12-03T11:44:46.834944",
    "MEAN_MOTION": "14.09459880",
    "ECCENTRICITY": "0.05447420",
    "INCLINATION": "28.7920",
    "RA_OF_ASC_NODE": "44.4803",
    "ARG_OF_PERICENTER": "305.3867",
    "MEAN_ANOMALY": "49.6978",
    "EPHEMERIS_TYPE": "0",
    "CLASSIFICATION_TYPE": "U",
    "NORAD_CAT_ID": "107",
    "ELEMENT_SET_NO": "999",
    "REV_AT_EPOCH": "4162",
    "BSTAR": "0.00013781000000",
    "MEAN_MOTION_DOT": "0.00001180",
    "MEAN_MOTION_DDOT": "0.0000000000000",
    "SEMIMAJOR_AXIS": "7239.358",
    "PERIOD": "102.167",
    "APOAPSIS": "1255.581",
    "PERIAPSIS": "466.864",
    "OBJECT_TYPE": "PAYLOAD",
    "RCS_SIZE": "MEDIUM",
    "COUNTRY_CODE": "US",
    "LAUNCH_DATE": "1961-04-27",
    "SITE": "AFETR",
    "DECAY_DATE": null,
    "FILE": "3231740",
    "GP_ID": "190990587",
    "TLE_LINE0": "0 EXPLORER 11",
    "TLE_LINE1": "1 00107U 61013A   21337.48943096  .00001180  00000-0  13781-3 0  9991",
    "TLE_LINE2": "2 00107  28.7920  44.4803 0544742 305.3867  49.6978 14.09459880 41623"
  },
  {
    "CCSDS_OMM_VERS": "2.0",
    "COMMENT": "GENERATED VIA SPACE-TRACK.ORG API",
    "CREATION_DATE": "2021-12-04T02:39:20",
    "ORIGINATOR": "18 SPCS",
    "OBJECT_NAME": "THOR ABLE DEB (YO)",
    "OBJECT_ID": "1960-002D",
    "CENTER_NAME": "EARTH",
    "REF_FRAME": "TEME",
    "TIME_SYSTEM": "UTC",
    "MEAN_ELEMENT_THEORY": "SGP4",
    "EPOCH": "2021-12-03T18:04:23.643552",
    "MEAN_MOTION": "14.83919430",
    "ECCENTRICITY": "0.00340560",
    "INCLINATION": "48.1656",
    "RA_OF_ASC_NODE": "224.4359",
    "ARG_OF_PERICENTER": "83.8314",
    "MEAN_ANOMALY": "276.6477",
    "EPHEMERIS_TYPE": "0",
    "CLASSIFICATION_TYPE": "U",
    "NORAD_CAT_ID": "115",
    "ELEMENT_SET_NO": "999",
    "REV_AT_EPOCH": "27115",
    "BSTAR": "0.00006481300000",
    "MEAN_MOTION_DOT": "0.00000321",
    "MEAN_MOTION_DDOT": "0.0000000000000",
    "SEMIMAJOR_AXIS": "6995.117",
    "PERIOD": "97.040",
    "APOAPSIS": "640.804",
    "PERIAPSIS": "593.159",
    "OBJECT_TYPE": "DEBRIS",
    "RCS_SIZE": "SMALL",
    "COUNTRY_CODE": "US",
    "LAUNCH_DATE": "1960-04-01",
    "SITE": "AFETR",
    "DECAY_DATE": null,
    "FILE": "3231910",
    "GP_ID": "191016772",
    "TLE_LINE0": "0 THOR ABLE DEB (YO)",
    "TLE_LINE1": "1 00115U 60002D   21337.75305143  .00000321  00000-0  64813-4 0  9991",
    "TLE_LINE2": "2 00115  48.1656 224.4359 0034056  83.8314 276.6477 14.83919430271150"
  },
  {
    "CCSDS_OMM_VERS": "2.0",
    "COMMENT": "GENERATED VIA SPACE-TRACK.ORG API",
    "CREATION_DATE": "2021-12-04T07:16:11",
    "ORIGINATOR": "18 SPCS",
    "OBJECT_NAME": "TRANSIT 4A",
    "OBJECT_ID": "1961-015A",
    "CENTER_NAME": "EARTH",
    "REF_FRAME": "TEME",
    "TIME_SYSTEM": "UTC",
    "MEAN_ELEMENT_THEORY": "SGP4",
    "EPOCH": "2021-12-04T04:26:03.978528",
    "MEAN_MOTION": "13.91803440",
    "ECCENTRICITY": "0.00766270",
    "INCLINATION": "66.8102",
    "RA_OF_ASC_NODE": "340.9784",
    "ARG_OF_PERICENTER": "349.0852",
    "MEAN_ANOMALY": "10.8561",
    "EPHEMERIS_TYPE": "0",
    "CLASSIFICATION_TYPE": "U",
    "NORAD_CAT_ID": "116",
    "ELEMENT_SET_NO": "999",
    "REV_AT_EPOCH": "6671",
    "BSTAR": "0.00002090500000",
    "MEAN_MOTION_DOT": "-0.00000050",
    "MEAN_MOTION_DDOT": "0.0000000000000",
    "SEMIMAJOR_AXIS": "7300.455",
    "PERIOD": "103.463",
    "APOAPSIS": "978.261",
    "PERIAPSIS": "866.378",
    "OBJECT_TYPE": "PAYLOAD",
    "RCS_SIZE": "MEDIUM",
    "COUNTRY_CODE": "US",
    "LAUNCH_DATE": "1961-06-29",
    "SITE": "AFETR",
    "DECAY_DATE": null,
    "FILE": "3232125",
    "GP_ID": "191045495",
    "TLE_LINE0": "0 TRANSIT 4A",
    "TLE_LINE1": "1   116U 61015A   21338.18476827 -.00000050  00000-0  20905-4 0  9997",
    "TLE_LINE2": "2   116  66.8102 340.9784 0076627 349.0852  10.8561 13.91803440 66711"
  }
]
